{
    "links": {
        "self": "http://www.neowsapp.com/rest/v1/neo/3389468?api_key=iIulBulltgU6a56xZRHN4H3l9WmuAYTsLGpBGhQ2"
    },
    "id": "3389468",
    "neo_reference_id": "3389468",
    "name": "(2007 UF6)",
    "designation": "2007 UF6",
    "nasa_jpl_url": "http://ssd.jpl.nasa.gov/sbdb.cgi?sstr=3389468",
    "absolute_magnitude_h": 25.8,
    "estimated_diameter": {
        "kilometers": {
            "estimated_diameter_min": 0.0183888672,
            "estimated_diameter_max": 0.0411187571
        },
        "meters": {
            "estimated_diameter_min": 18.388867207,
            "estimated_diameter_max": 41.1187571041
        },
        "miles": {
            "estimated_diameter_min": 0.0114263088,
            "estimated_diameter_max": 0.0255500032
        },
        "feet": {
            "estimated_diameter_min": 60.3309310875,
            "estimated_diameter_max": 134.9040630575
        }
    },
    "is_potentially_hazardous_asteroid": false,
    "close_approach_data": [
        {
            "close_approach_date": "2007-10-27",
            "close_approach_date_full": "2007-Oct-27 08:33",
            "epoch_date_close_approach": 1193473980000,
            "relative_velocity": {
                "kilometers_per_second": "9.7553043955",
                "kilometers_per_hour": "35119.0958236813",
                "miles_per_hour": "21821.6404022202"
            },
            "miss_distance": {
                "astronomical": "0.0192117691",
                "lunar": "7.4733781799",
                "kilometers": "2874039.736291817",
                "miles": "1785845.4813763946"
            },
            "orbiting_body": "Earth"
        }
    ],
    "orbital_data": {
        "orbit_id": "8",
        "orbit_determination_date": "2017-04-06 09:05:32",
        "first_observation_date": "2007-10-21",
        "last_observation_date": "2007-10-23",
        "data_arc_in_days": 2,
        "observations_used": 20,
        "orbit_uncertainty": "8",
        "minimum_orbit_intersection": ".0160597",
        "jupiter_tisserand_invariant": "3.702",
        "epoch_osculation": "2454395.5",
        "eccentricity": ".5244969461988828",
        "semi_major_axis": "1.956209060770384",
        "inclination": "3.495956064579745",
        "ascending_node_longitude": "200.6984475898885",
        "orbital_period": "999.3585354133596",
        "perihelion_distance": ".930183382269733",
        "perihelion_argument": "231.3121867061064",
        "aphelion_distance": "2.982234739271036",
        "perihelion_time": "2454430.378770473085",
        "mean_anomaly": "347.4355830011328",
        "mean_motion": ".3602310754779264",
        "equinox": "J2000",
        "orbit_class": {
            "orbit_class_type": "APO",
            "orbit_class_description": "Near-Earth asteroid orbits which cross the Earth’s orbit similar to that of 1862 Apollo",
            "orbit_class_range": "a (semi-major axis) > 1.0 AU; q (perihelion) < 1.017 AU"
        }
    },
    "is_sentry_object": false
}